[{"OBJECT_NAME":"STARLINK-37060","OBJECT_ID":"2026-049J","EPOCH":"2026-04-05T19:35:16.082304","MEAN_MOTION":15.8086621,"ECCENTRICITY":0.000155,"INCLINATION":97.2845,"RA_OF_ASC_NODE":116.48,"ARG_OF_PERICENTER":125.6868,"MEAN_ANOMALY":234.4545,"EPHEMERIS_TYPE":0,"CLASSIFICATION_TYPE":"U","NORAD_CAT_ID":68150,"ELEMENT_SET_NO":999,"REV_AT_EPOCH":369,"BSTAR":0.00040108,"MEAN_MOTION_DOT":0.00077548,"MEAN_MOTION_DDOT":0},{"OBJECT_NAME":"STARLINK-37073","OBJECT_ID":"2026-049K","EPOCH":"2026-04-05T19:58:48.156384","MEAN_MOTION":15.75264381,"ECCENTRICITY":9.67e-5,"INCLINATION":97.2845,"RA_OF_ASC_NODE":116.4571,"ARG_OF_PERICENTER":106.4646,"MEAN_ANOMALY":253.6726,"EPHEMERIS_TYPE":0,"CLASSIFICATION_TYPE":"U","NORAD_CAT_ID":68151,"ELEMENT_SET_NO":999,"REV_AT_EPOCH":369,"BSTAR":0.0012618,"MEAN_MOTION_DOT":0.00193009,"MEAN_MOTION_DDOT":0},{"OBJECT_NAME":"STARLINK-37049","OBJECT_ID":"2026-049L","EPOCH":"2026-04-05T20:00:03.000384","MEAN_MOTION":15.75163344,"ECCENTRICITY":0.0001445,"INCLINATION":97.2845,"RA_OF_ASC_NODE":116.4798,"ARG_OF_PERICENTER":96.1615,"MEAN_ANOMALY":314.9037,"EPHEMERIS_TYPE":0,"CLASSIFICATION_TYPE":"U","NORAD_CAT_ID":68152,"ELEMENT_SET_NO":999,"REV_AT_EPOCH":498,"BSTAR":0.00013585,"MEAN_MOTION_DOT":0.00020157,"MEAN_MOTION_DDOT":0},{"OBJECT_NAME":"STARLINK-37072","OBJECT_ID":"2026-049M","EPOCH":"2026-04-05T20:03:52.909056","MEAN_MOTION":15.75284353,"ECCENTRICITY":0.0001232,"INCLINATION":97.284,"RA_OF_ASC_NODE":116.4526,"ARG_OF_PERICENTER":67.404,"MEAN_ANOMALY":292.7355,"EPHEMERIS_TYPE":0,"CLASSIFICATION_TYPE":"U","NORAD_CAT_ID":68153,"ELEMENT_SET_NO":999,"REV_AT_EPOCH":369,"BSTAR":0.0014094,"MEAN_MOTION_DOT":0.00216392,"MEAN_MOTION_DDOT":0},{"OBJECT_NAME":"STARLINK-36241","OBJECT_ID":"2026-049N","EPOCH":"2026-04-05T18:49:40.900224","MEAN_MOTION":15.75240162,"ECCENTRICITY":0.0001439,"INCLINATION":97.2849,"RA_OF_ASC_NODE":116.3685,"ARG_OF_PERICENTER":80.6834,"MEAN_ANOMALY":279.4594,"EPHEMERIS_TYPE":0,"CLASSIFICATION_TYPE":"U","NORAD_CAT_ID":68154,"ELEMENT_SET_NO":999,"REV_AT_EPOCH":368,"BSTAR":0.00049605,"MEAN_MOTION_DOT":0.00074671,"MEAN_MOTION_DDOT":0},{"OBJECT_NAME":"STARLINK-37048","OBJECT_ID":"2026-049P","EPOCH":"2026-04-05T19:27:41.302080","MEAN_MOTION":15.80897042,"ECCENTRICITY":0.0001024,"INCLINATION":97.2853,"RA_OF_ASC_NODE":116.4868,"ARG_OF_PERICENTER":105.6462,"MEAN_ANOMALY":254.492,"EPHEMERIS_TYPE":0,"CLASSIFICATION_TYPE":"U","NORAD_CAT_ID":68155,"ELEMENT_SET_NO":999,"REV_AT_EPOCH":369,"BSTAR":0.00060511,"MEAN_MOTION_DOT":0.00117776,"MEAN_MOTION_DDOT":0},{"OBJECT_NAME":"STARLINK-36313","OBJECT_ID":"2026-049Q","EPOCH":"2026-04-05T20:00:03.000384","MEAN_MOTION":15.77453046,"ECCENTRICITY":0.0001687,"INCLINATION":97.2846,"RA_OF_ASC_NODE":116.5079,"ARG_OF_PERICENTER":67.9501,"MEAN_ANOMALY":50.8939,"EPHEMERIS_TYPE":0,"CLASSIFICATION_TYPE":"U","NORAD_CAT_ID":68156,"ELEMENT_SET_NO":999,"REV_AT_EPOCH":499,"BSTAR":-0.013227,"MEAN_MOTION_DOT":-0.01900382,"MEAN_MOTION_DDOT":0},{"OBJECT_NAME":"STARLINK-37064","OBJECT_ID":"2026-049R","EPOCH":"2026-04-05T19:30:55.990656","MEAN_MOTION":15.80879619,"ECCENTRICITY":7.21e-5,"INCLINATION":97.2849,"RA_OF_ASC_NODE":116.4831,"ARG_OF_PERICENTER":110.1818,"MEAN_ANOMALY":249.9528,"EPHEMERIS_TYPE":0,"CLASSIFICATION_TYPE":"U","NORAD_CAT_ID":68157,"ELEMENT_SET_NO":999,"REV_AT_EPOCH":369,"BSTAR":0.00030155,"MEAN_MOTION_DOT":0.00058172,"MEAN_MOTION_DDOT":0},{"OBJECT_NAME":"STARLINK-37069","OBJECT_ID":"2026-049S","EPOCH":"2026-04-05T18:44:36.038688","MEAN_MOTION":15.7521735,"ECCENTRICITY":0.0001464,"INCLINATION":97.2848,"RA_OF_ASC_NODE":116.3736,"ARG_OF_PERICENTER":97.5462,"MEAN_ANOMALY":262.597,"EPHEMERIS_TYPE":0,"CLASSIFICATION_TYPE":"U","NORAD_CAT_ID":68158,"ELEMENT_SET_NO":999,"REV_AT_EPOCH":368,"BSTAR":0.00010095,"MEAN_MOTION_DOT":0.00014973,"MEAN_MOTION_DDOT":0},{"OBJECT_NAME":"STARLINK-37053","OBJECT_ID":"2026-049T","EPOCH":"2026-04-05T20:00:03.000384","MEAN_MOTION":15.75156611,"ECCENTRICITY":0.0001278,"INCLINATION":97.2846,"RA_OF_ASC_NODE":116.4943,"ARG_OF_PERICENTER":107.8289,"MEAN_ANOMALY":339.2375,"EPHEMERIS_TYPE":0,"CLASSIFICATION_TYPE":"U","NORAD_CAT_ID":68159,"ELEMENT_SET_NO":999,"REV_AT_EPOCH":498,"BSTAR":0.00010967,"MEAN_MOTION_DOT":0.00016235,"MEAN_MOTION_DDOT":0},{"OBJECT_NAME":"STARLINK-36306","OBJECT_ID":"2026-049U","EPOCH":"2026-04-05T20:10:29.161920","MEAN_MOTION":15.75272233,"ECCENTRICITY":0.0001072,"INCLINATION":97.2846,"RA_OF_ASC_NODE":116.4459,"ARG_OF_PERICENTER":96.1133,"MEAN_ANOMALY":264.0254,"EPHEMERIS_TYPE":0,"CLASSIFICATION_TYPE":"U","NORAD_CAT_ID":68160,"ELEMENT_SET_NO":999,"REV_AT_EPOCH":369,"BSTAR":0.0009145,"MEAN_MOTION_DOT":0.00139008,"MEAN_MOTION_DDOT":0},{"OBJECT_NAME":"STARLINK-37057","OBJECT_ID":"2026-049V","EPOCH":"2026-04-05T20:00:03.000384","MEAN_MOTION":15.75155781,"ECCENTRICITY":0.0001619,"INCLINATION":97.2846,"RA_OF_ASC_NODE":116.4995,"ARG_OF_PERICENTER":91.5458,"MEAN_ANOMALY":7.5201,"EPHEMERIS_TYPE":0,"CLASSIFICATION_TYPE":"U","NORAD_CAT_ID":68161,"ELEMENT_SET_NO":999,"REV_AT_EPOCH":498,"BSTAR":0.00010512,"MEAN_MOTION_DOT":0.00015555,"MEAN_MOTION_DDOT":0},{"OBJECT_NAME":"STARLINK-37013","OBJECT_ID":"2026-049W","EPOCH":"2026-04-05T19:19:01.892928","MEAN_MOTION":15.80894536,"ECCENTRICITY":0.0001196,"INCLINATION":97.2858,"RA_OF_ASC_NODE":116.4944,"ARG_OF_PERICENTER":109.4326,"MEAN_ANOMALY":250.7072,"EPHEMERIS_TYPE":0,"CLASSIFICATION_TYPE":"U","NORAD_CAT_ID":68162,"ELEMENT_SET_NO":999,"REV_AT_EPOCH":369,"BSTAR":0.00050658,"MEAN_MOTION_DOT":0.00098345,"MEAN_MOTION_DDOT":0},{"OBJECT_NAME":"STARLINK-36958","OBJECT_ID":"2026-049X","EPOCH":"2026-04-05T20:00:03.000384","MEAN_MOTION":15.75162055,"ECCENTRICITY":0.0001312,"INCLINATION":97.2841,"RA_OF_ASC_NODE":116.4894,"ARG_OF_PERICENTER":91.9289,"MEAN_ANOMALY":343.1385,"EPHEMERIS_TYPE":0,"CLASSIFICATION_TYPE":"U","NORAD_CAT_ID":68163,"ELEMENT_SET_NO":999,"REV_AT_EPOCH":498,"BSTAR":5.0068e-6,"MEAN_MOTION_DOT":6.16e-6,"MEAN_MOTION_DDOT":0},{"OBJECT_NAME":"STARLINK-37002","OBJECT_ID":"2026-049Y","EPOCH":"2026-04-05T17:51:07.648992","MEAN_MOTION":15.80879624,"ECCENTRICITY":9.8e-5,"INCLINATION":97.2855,"RA_OF_ASC_NODE":116.4245,"ARG_OF_PERICENTER":125.3886,"MEAN_ANOMALY":234.7474,"EPHEMERIS_TYPE":0,"CLASSIFICATION_TYPE":"U","NORAD_CAT_ID":68164,"ELEMENT_SET_NO":999,"REV_AT_EPOCH":368,"BSTAR":0.00033545,"MEAN_MOTION_DOT":0.00064777,"MEAN_MOTION_DDOT":0},{"OBJECT_NAME":"STARLINK-36971","OBJECT_ID":"2026-049Z","EPOCH":"2026-04-05T19:50:09.740832","MEAN_MOTION":15.75246919,"ECCENTRICITY":0.0001344,"INCLINATION":97.2844,"RA_OF_ASC_NODE":116.4659,"ARG_OF_PERICENTER":99.0012,"MEAN_ANOMALY":261.1405,"EPHEMERIS_TYPE":0,"CLASSIFICATION_TYPE":"U","NORAD_CAT_ID":68165,"ELEMENT_SET_NO":999,"REV_AT_EPOCH":369,"BSTAR":0.0004988,"MEAN_MOTION_DOT":0.00075111,"MEAN_MOTION_DDOT":0},{"OBJECT_NAME":"STARLINK-36273","OBJECT_ID":"2026-049AA","EPOCH":"2026-04-05T20:09:28.040832","MEAN_MOTION":15.75281126,"ECCENTRICITY":0.0001111,"INCLINATION":97.2849,"RA_OF_ASC_NODE":116.4468,"ARG_OF_PERICENTER":114.3227,"MEAN_ANOMALY":245.8154,"EPHEMERIS_TYPE":0,"CLASSIFICATION_TYPE":"U","NORAD_CAT_ID":68166,"ELEMENT_SET_NO":999,"REV_AT_EPOCH":369,"BSTAR":0.00075611,"MEAN_MOTION_DOT":0.00114624,"MEAN_MOTION_DDOT":0}]
