STARLINK-37060          
1 68150U 26049J   26095.81615836  .00077548  00000+0  40108-3 0  9997
2 68150  97.2845 116.4800 0001550 125.6868 234.4545 15.80866210  3696
STARLINK-37073          
1 68151U 26049K   26095.83250181  .00193009  00000+0  12618-2 0  9993
2 68151  97.2845 116.4571 0000967 106.4646 253.6726 15.75264381  3693
STARLINK-37049          
1 68152U 26049L   26095.83336806  .00020157  00000+0  13585-3 0  9991
2 68152  97.2845 116.4798 0001445  96.1615 314.9037 15.75163344  4984
STARLINK-37072          
1 68153U 26049M   26095.83602904  .00216392  00000+0  14094-2 0  9990
2 68153  97.2840 116.4526 0001232  67.4040 292.7355 15.75284353  3693
STARLINK-36241          
1 68154U 26049N   26095.78450116  .00074671  00000+0  49605-3 0  9990
2 68154  97.2849 116.3685 0001439  80.6834 279.4594 15.75240162  3681
STARLINK-37048          
1 68155U 26049P   26095.81089470  .00117776  00000+0  60511-3 0  9999
2 68155  97.2853 116.4868 0001024 105.6462 254.4920 15.80897042  3694
STARLINK-36313          
1 68156U 26049Q   26095.83336806 -.01900382  00000+0 -13227-1 0  9996
2 68156  97.2846 116.5079 0001687  67.9501  50.8939 15.77453046  4991
STARLINK-37064          
1 68157U 26049R   26095.81314804  .00058172  00000+0  30155-3 0  9998
2 68157  97.2849 116.4831 0000721 110.1818 249.9528 15.80879619  3693
STARLINK-37069          
1 68158U 26049S   26095.78097267  .00014973  00000+0  10095-3 0  9998
2 68158  97.2848 116.3736 0001464  97.5462 262.5970 15.75217350  3687
STARLINK-37053          
1 68159U 26049T   26095.83336806  .00016235  00000+0  10967-3 0  9991
2 68159  97.2846 116.4943 0001278 107.8289 339.2375 15.75156611  4989
STARLINK-36306          
1 68160U 26049U   26095.84061530  .00139008  00000+0  91450-3 0  9993
2 68160  97.2846 116.4459 0001072  96.1133 264.0254 15.75272233  3690
STARLINK-37057          
1 68161U 26049V   26095.83336806  .00015555  00000+0  10512-3 0  9994
2 68161  97.2846 116.4995 0001619  91.5458   7.5201 15.75155781  4985
STARLINK-37013          
1 68162U 26049W   26095.80488302  .00098345  00000+0  50658-3 0  9994
2 68162  97.2858 116.4944 0001196 109.4326 250.7072 15.80894536  3695
STARLINK-36958          
1 68163U 26049X   26095.83336806  .00000616  00000+0  50068-5 0  9990
2 68163  97.2841 116.4894 0001312  91.9289 343.1385 15.75162055  4980
STARLINK-37002          
1 68164U 26049Y   26095.74383853  .00064777  00000+0  33545-3 0  9992
2 68164  97.2855 116.4245 0000980 125.3886 234.7474 15.80879624  3684
STARLINK-36971          
1 68165U 26049Z   26095.82650163  .00075111  00000+0  49880-3 0  9996
2 68165  97.2844 116.4659 0001344  99.0012 261.1405 15.75246919  3693
STARLINK-36273          
1 68166U 26049AA  26095.83990788  .00114624  00000+0  75611-3 0  9992
2 68166  97.2849 116.4468 0001111 114.3227 245.8154 15.75281126  3697
